{"fetched_at":"2026-03-29T16:36:15Z","count":15609,"tles":[{"name":"STARLINK-30973","line1":"1 58713U 24002J   26087.41437109  .00000923  00000+0  43287-4 0  9995","line2":"2 58713  53.1603 142.8578 0001032  78.2952 281.8165 15.30190770124885","category":"Starlink"}]}